KUIPER-00605            
1 69288U 26118X   26197.25002315 -.00035363  00000+0 -28059-2 0  9991
2 69288  51.8880 275.4426 0004268 345.6022 159.9808 14.99987011  3739
KUIPER-00606            
1 69289U 26118Y   26197.25002315 -.02436026  00000+0 -79210-1 0  9999
2 69289  51.8707 272.5803 0003770 276.1039 145.5601 15.35210392  5587
KUIPER-00607            
1 69290U 26118Z   26197.24510924 -.00003331  00000+0 -77291-4 0  9997
2 69290  51.8665 272.6729 0005313 275.4953  84.5428 15.37999769  8454
KUIPER-00608            
1 69291U 26118AA  26197.19264904  .00007025  00000+0  22044-3 0  9993
2 69291  51.8612 273.7713 0008430 311.5892  48.4370 15.34127485  8437
KUIPER-00610            
1 69292U 26118AB  26197.21978527  .00011250  00000+0  29823-3 0  9997
2 69292  51.8712 272.5165 0001465 317.9592  42.1283 15.38817930  8456
KUIPER-00613            
1 69293U 26118AC  26197.25002315 -.00040169  00000+0 -32499-2 0  9990
2 69293  51.8890 275.4243 0006218 297.3507 158.2623 14.99294580  5518
KUIPER-00618            
1 69294U 26118AD  26197.23034774  .00012643  00000+0  34745-3 0  9994
2 69294  51.8707 272.5848 0001011 345.1633  14.9324 15.37576443  8459
KUIPER-00620            
1 69295U 26118AE  26196.56989264  .00020107  00000+0  52496-3 0  9990
2 69295  51.8708 275.6598 0001339 280.5280  79.5556 15.38783296  8350
KUIPER-00423            
1 69592U 26140A   26197.15686906  .00015889  00000+0  41910-3 0  9998
2 69592  51.8786 258.3930 0013524 272.3557  87.5882 15.38565839  5695
KUIPER-00428            
1 69593U 26140B   26197.19647518  .00013253  00000+0  37062-3 0  9995
2 69593  51.8788 258.6493 0008215  33.9427 326.2084 15.36965531  5691
KUIPER-00481            
1 69594U 26140C   26197.16840420  .00015103  00000+0  40615-3 0  9994
2 69594  51.8774 258.4630 0010966 283.2655  76.7108 15.38040276  5693
KUIPER-00490            
1 69595U 26140D   26196.39845832  .00011430  00000+0  31116-3 0  9996
2 69595  51.8773 262.2942 0006538 340.6675  19.4063 15.37963668  5571
KUIPER-00493            
1 69596U 26140E   26197.20205061  .00011641  00000+0  33060-3 0  9996
2 69596  51.8787 258.6890 0008294  42.2379 317.9245 15.36614156  5690
KUIPER-00496            
1 69597U 26140F   26196.51122615  .00011084  00000+0  33895-3 0  9990
2 69597  51.8786 262.2928 0010507  47.5263 312.6609 15.34314068  5584
KUIPER-00513            
1 69598U 26140G   26197.17481270  .00012840  00000+0  34580-3 0  9992
2 69598  51.8793 258.5128 0007497 343.5106  16.5636 15.38173639  5695
KUIPER-00516            
1 69599U 26140H   26196.40352828  .00007549  00000+0  21163-3 0  9997
2 69599  51.8775 262.3325 0007142 355.5111   4.5811 15.37594249  5576
