{"fetched_at":"2026-07-16T17:46:03.568Z","source":"https://celestrak.org/NORAD/elements/gp.php?GROUP=kuiper&FORMAT=JSON","constellation":"kuiper","records":[{"OBJECT_NAME":"KUIPER-00605","OBJECT_ID":"2026-118X","EPOCH":"2026-07-16T06:00:02.000160","CLASSIFICATION_TYPE":"U","MEAN_MOTION":14.99987011,"ECCENTRICITY":0.00042689,"INCLINATION":51.888,"RA_OF_ASC_NODE":275.4426,"ARG_OF_PERICENTER":345.6022,"MEAN_ANOMALY":159.9808,"EPHEMERIS_TYPE":0,"NORAD_CAT_ID":69288,"ELEMENT_SET_NO":999,"REV_AT_EPOCH":373,"BSTAR":-0.002805858,"MEAN_MOTION_DOT":-0.00035363,"MEAN_MOTION_DDOT":0},{"OBJECT_NAME":"KUIPER-00606","OBJECT_ID":"2026-118Y","EPOCH":"2026-07-16T06:00:02.000160","CLASSIFICATION_TYPE":"U","MEAN_MOTION":15.35210392,"ECCENTRICITY":0.00037707,"INCLINATION":51.8707,"RA_OF_ASC_NODE":272.5803,"ARG_OF_PERICENTER":276.1039,"MEAN_ANOMALY":145.5601,"EPHEMERIS_TYPE":0,"NORAD_CAT_ID":69289,"ELEMENT_SET_NO":999,"REV_AT_EPOCH":558,"BSTAR":-0.079210053,"MEAN_MOTION_DOT":-0.02436026,"MEAN_MOTION_DDOT":0},{"OBJECT_NAME":"KUIPER-00607","OBJECT_ID":"2026-118Z","EPOCH":"2026-07-16T05:52:57.438336","CLASSIFICATION_TYPE":"U","MEAN_MOTION":15.37999769,"ECCENTRICITY":0.00053138,"INCLINATION":51.8665,"RA_OF_ASC_NODE":272.6729,"ARG_OF_PERICENTER":275.4953,"MEAN_ANOMALY":84.5428,"EPHEMERIS_TYPE":0,"NORAD_CAT_ID":69290,"ELEMENT_SET_NO":999,"REV_AT_EPOCH":845,"BSTAR":-0.000077291285,"MEAN_MOTION_DOT":-0.00003331,"MEAN_MOTION_DDOT":0},{"OBJECT_NAME":"KUIPER-00608","OBJECT_ID":"2026-118AA","EPOCH":"2026-07-16T04:37:24.877056","CLASSIFICATION_TYPE":"U","MEAN_MOTION":15.34127485,"ECCENTRICITY":0.00084306,"INCLINATION":51.8612,"RA_OF_ASC_NODE":273.7713,"ARG_OF_PERICENTER":311.5892,"MEAN_ANOMALY":48.437,"EPHEMERIS_TYPE":0,"NORAD_CAT_ID":69291,"ELEMENT_SET_NO":999,"REV_AT_EPOCH":843,"BSTAR":0.00022044345,"MEAN_MOTION_DOT":0.00007025,"MEAN_MOTION_DDOT":0},{"OBJECT_NAME":"KUIPER-00610","OBJECT_ID":"2026-118AB","EPOCH":"2026-07-16T05:16:29.447328","CLASSIFICATION_TYPE":"U","MEAN_MOTION":15.3881793,"ECCENTRICITY":0.00014654,"INCLINATION":51.8712,"RA_OF_ASC_NODE":272.5165,"ARG_OF_PERICENTER":317.9592,"MEAN_ANOMALY":42.1283,"EPHEMERIS_TYPE":0,"NORAD_CAT_ID":69292,"ELEMENT_SET_NO":999,"REV_AT_EPOCH":845,"BSTAR":0.000298226,"MEAN_MOTION_DOT":0.0001125,"MEAN_MOTION_DDOT":0},{"OBJECT_NAME":"KUIPER-00613","OBJECT_ID":"2026-118AC","EPOCH":"2026-07-16T06:00:02.000160","CLASSIFICATION_TYPE":"U","MEAN_MOTION":14.9929458,"ECCENTRICITY":0.00062185,"INCLINATION":51.889,"RA_OF_ASC_NODE":275.4243,"ARG_OF_PERICENTER":297.3507,"MEAN_ANOMALY":158.2623,"EPHEMERIS_TYPE":0,"NORAD_CAT_ID":69293,"ELEMENT_SET_NO":999,"REV_AT_EPOCH":551,"BSTAR":-0.0032498628,"MEAN_MOTION_DOT":-0.00040169,"MEAN_MOTION_DDOT":0},{"OBJECT_NAME":"KUIPER-00618","OBJECT_ID":"2026-118AD","EPOCH":"2026-07-16T05:31:42.044736","CLASSIFICATION_TYPE":"U","MEAN_MOTION":15.37576443,"ECCENTRICITY":0.00010118,"INCLINATION":51.8707,"RA_OF_ASC_NODE":272.5848,"ARG_OF_PERICENTER":345.1633,"MEAN_ANOMALY":14.9324,"EPHEMERIS_TYPE":0,"NORAD_CAT_ID":69294,"ELEMENT_SET_NO":999,"REV_AT_EPOCH":845,"BSTAR":0.00034745357,"MEAN_MOTION_DOT":0.00012643,"MEAN_MOTION_DDOT":0},{"OBJECT_NAME":"KUIPER-00620","OBJECT_ID":"2026-118AE","EPOCH":"2026-07-15T13:40:38.724096","CLASSIFICATION_TYPE":"U","MEAN_MOTION":15.38783296,"ECCENTRICITY":0.0001339,"INCLINATION":51.8708,"RA_OF_ASC_NODE":275.6598,"ARG_OF_PERICENTER":280.528,"MEAN_ANOMALY":79.5556,"EPHEMERIS_TYPE":0,"NORAD_CAT_ID":69295,"ELEMENT_SET_NO":999,"REV_AT_EPOCH":835,"BSTAR":0.00052496,"MEAN_MOTION_DOT":0.00020107,"MEAN_MOTION_DDOT":0},{"OBJECT_NAME":"KUIPER-00423","OBJECT_ID":"2026-140A","EPOCH":"2026-07-16T03:45:53.486784","CLASSIFICATION_TYPE":"U","MEAN_MOTION":15.38565839,"ECCENTRICITY":0.00135248,"INCLINATION":51.8786,"RA_OF_ASC_NODE":258.393,"ARG_OF_PERICENTER":272.3557,"MEAN_ANOMALY":87.5882,"EPHEMERIS_TYPE":0,"NORAD_CAT_ID":69592,"ELEMENT_SET_NO":999,"REV_AT_EPOCH":569,"BSTAR":0.00041909554,"MEAN_MOTION_DOT":0.00015889,"MEAN_MOTION_DDOT":0},{"OBJECT_NAME":"KUIPER-00428","OBJECT_ID":"2026-140B","EPOCH":"2026-07-16T04:42:55.455552","CLASSIFICATION_TYPE":"U","MEAN_MOTION":15.36965531,"ECCENTRICITY":0.00082153,"INCLINATION":51.8788,"RA_OF_ASC_NODE":258.6493,"ARG_OF_PERICENTER":33.9427,"MEAN_ANOMALY":326.2084,"EPHEMERIS_TYPE":0,"NORAD_CAT_ID":69593,"ELEMENT_SET_NO":999,"REV_AT_EPOCH":569,"BSTAR":0.00037062062,"MEAN_MOTION_DOT":0.00013253,"MEAN_MOTION_DDOT":0},{"OBJECT_NAME":"KUIPER-00481","OBJECT_ID":"2026-140C","EPOCH":"2026-07-16T04:02:30.122880","CLASSIFICATION_TYPE":"U","MEAN_MOTION":15.38040276,"ECCENTRICITY":0.00109661,"INCLINATION":51.8774,"RA_OF_ASC_NODE":258.463,"ARG_OF_PERICENTER":283.2655,"MEAN_ANOMALY":76.7108,"EPHEMERIS_TYPE":0,"NORAD_CAT_ID":69594,"ELEMENT_SET_NO":999,"REV_AT_EPOCH":569,"BSTAR":0.00040615371,"MEAN_MOTION_DOT":0.00015103,"MEAN_MOTION_DDOT":0},{"OBJECT_NAME":"KUIPER-00490","OBJECT_ID":"2026-140D","EPOCH":"2026-07-15T09:33:46.798848","CLASSIFICATION_TYPE":"U","MEAN_MOTION":15.37963668,"ECCENTRICITY":0.00065384,"INCLINATION":51.8773,"RA_OF_ASC_NODE":262.2942,"ARG_OF_PERICENTER":340.6675,"MEAN_ANOMALY":19.4063,"EPHEMERIS_TYPE":0,"NORAD_CAT_ID":69595,"ELEMENT_SET_NO":999,"REV_AT_EPOCH":557,"BSTAR":0.00031116129,"MEAN_MOTION_DOT":0.0001143,"MEAN_MOTION_DDOT":0},{"OBJECT_NAME":"KUIPER-00493","OBJECT_ID":"2026-140E","EPOCH":"2026-07-16T04:50:57.172704","CLASSIFICATION_TYPE":"U","MEAN_MOTION":15.36614156,"ECCENTRICITY":0.0008294,"INCLINATION":51.8787,"RA_OF_ASC_NODE":258.689,"ARG_OF_PERICENTER":42.2379,"MEAN_ANOMALY":317.9245,"EPHEMERIS_TYPE":0,"NORAD_CAT_ID":69596,"ELEMENT_SET_NO":999,"REV_AT_EPOCH":569,"BSTAR":0.0003306038,"MEAN_MOTION_DOT":0.00011641,"MEAN_MOTION_DDOT":0},{"OBJECT_NAME":"KUIPER-00496","OBJECT_ID":"2026-140F","EPOCH":"2026-07-15T12:16:09.939360","CLASSIFICATION_TYPE":"U","MEAN_MOTION":15.34314068,"ECCENTRICITY":0.0010507,"INCLINATION":51.8786,"RA_OF_ASC_NODE":262.2928,"ARG_OF_PERICENTER":47.5263,"MEAN_ANOMALY":312.6609,"EPHEMERIS_TYPE":0,"NORAD_CAT_ID":69597,"ELEMENT_SET_NO":999,"REV_AT_EPOCH":558,"BSTAR":0.00033895,"MEAN_MOTION_DOT":0.00011084,"MEAN_MOTION_DDOT":0},{"OBJECT_NAME":"KUIPER-00513","OBJECT_ID":"2026-140G","EPOCH":"2026-07-16T04:11:43.817280","CLASSIFICATION_TYPE":"U","MEAN_MOTION":15.38173639,"ECCENTRICITY":0.00074978,"INCLINATION":51.8793,"RA_OF_ASC_NODE":258.5128,"ARG_OF_PERICENTER":343.5106,"MEAN_ANOMALY":16.5636,"EPHEMERIS_TYPE":0,"NORAD_CAT_ID":69598,"ELEMENT_SET_NO":999,"REV_AT_EPOCH":569,"BSTAR":0.00034580047,"MEAN_MOTION_DOT":0.0001284,"MEAN_MOTION_DDOT":0},{"OBJECT_NAME":"KUIPER-00516","OBJECT_ID":"2026-140H","EPOCH":"2026-07-15T09:41:04.843392","CLASSIFICATION_TYPE":"U","MEAN_MOTION":15.37594249,"ECCENTRICITY":0.00071421,"INCLINATION":51.8775,"RA_OF_ASC_NODE":262.3325,"ARG_OF_PERICENTER":355.5111,"MEAN_ANOMALY":4.5811,"EPHEMERIS_TYPE":0,"NORAD_CAT_ID":69599,"ELEMENT_SET_NO":999,"REV_AT_EPOCH":557,"BSTAR":0.00021162896,"MEAN_MOTION_DOT":0.00007549,"MEAN_MOTION_DDOT":0}]}
